CCSDS_OMM_VERS = 2.0
CREATION_DATE  = 
ORIGINATOR     = 

OBJECT_NAME    = USA 568
OBJECT_ID      = 2024-134K
CENTER_NAME    = EARTH
REF_FRAME      = TEME
TIME_SYSTEM    = UTC
MEAN_ELEMENT_THEORY = SGP/SGP4

EPOCH          = 2025-12-02T16:00:03.000096
MEAN_MOTION    = 15.87051116
ECCENTRICITY   = .0000717
INCLINATION    = 53.1571
RA_OF_ASC_NODE = 236.7807
ARG_OF_PERICENTER = 110.7411
MEAN_ANOMALY   = 313.9012

EPHEMERIS_TYPE = 0
CLASSIFICATION_TYPE = U
NORAD_CAT_ID   = 66551
ELEMENT_SET_NO = 999
REV_AT_EPOCH   = 262
BSTAR          = -.74303E-2
MEAN_MOTION_DOT = -.1709685E-1
MEAN_MOTION_DDOT = 0

CCSDS_OMM_VERS = 2.0
CREATION_DATE  = 
ORIGINATOR     = 

OBJECT_NAME    = GLOBAL-33
OBJECT_ID      = 2025-267A
CENTER_NAME    = EARTH
REF_FRAME      = TEME
TIME_SYSTEM    = UTC
MEAN_ELEMENT_THEORY = SGP/SGP4

EPOCH          = 2025-12-11T14:53:12.552288
MEAN_MOTION    = 15.31613043
ECCENTRICITY   = .00043712
INCLINATION    = 42.0212
RA_OF_ASC_NODE = 63.4559
ARG_OF_PERICENTER = 46.3547
MEAN_ANOMALY   = 313.7652

EPHEMERIS_TYPE = 0
CLASSIFICATION_TYPE = U
NORAD_CAT_ID   = 66554
ELEMENT_SET_NO = 999
REV_AT_EPOCH   = 323
BSTAR          = .61477883E-3
MEAN_MOTION_DOT = .18974E-3
MEAN_MOTION_DDOT = 0

CCSDS_OMM_VERS = 2.0
CREATION_DATE  = 
ORIGINATOR     = 

OBJECT_NAME    = ELECTRON KICK STAGE R/B
OBJECT_ID      = 2025-267B
CENTER_NAME    = EARTH
REF_FRAME      = TEME
TIME_SYSTEM    = UTC
MEAN_ELEMENT_THEORY = SGP/SGP4

EPOCH          = 2025-12-11T14:37:24.915360
MEAN_MOTION    = 15.32723055
ECCENTRICITY   = .00065972
INCLINATION    = 42.0196
RA_OF_ASC_NODE = 63.3722
ARG_OF_PERICENTER = 43.8355
MEAN_ANOMALY   = 316.3006

EPHEMERIS_TYPE = 0
CLASSIFICATION_TYPE = U
NORAD_CAT_ID   = 66555
ELEMENT_SET_NO = 999
REV_AT_EPOCH   = 323
BSTAR          = .11433379E-2
MEAN_MOTION_DOT = .36872E-3
MEAN_MOTION_DDOT = 0

CCSDS_OMM_VERS = 2.0
CREATION_DATE  = 
ORIGINATOR     = 

OBJECT_NAME    = STARLINK-35699
OBJECT_ID      = 2025-268A
CENTER_NAME    = EARTH
REF_FRAME      = TEME
TIME_SYSTEM    = UTC
MEAN_ELEMENT_THEORY = SGP/SGP4

EPOCH          = 2025-12-11T14:00:01.999872
MEAN_MOTION    = 15.50711148
ECCENTRICITY   = .0001584
INCLINATION    = 42.9997
RA_OF_ASC_NODE = 127.9638
ARG_OF_PERICENTER = 257.8250
MEAN_ANOMALY   = 218.0370

EPHEMERIS_TYPE = 0
CLASSIFICATION_TYPE = U
NORAD_CAT_ID   = 66557
ELEMENT_SET_NO = 999
REV_AT_EPOCH   = 448
BSTAR          = -.26010979E-3
MEAN_MOTION_DOT = -.15643E-3
MEAN_MOTION_DDOT = 0

CCSDS_OMM_VERS = 2.0
CREATION_DATE  = 
ORIGINATOR     = 

OBJECT_NAME    = STARLINK-35695
OBJECT_ID      = 2025-268B
CENTER_NAME    = EARTH
REF_FRAME      = TEME
TIME_SYSTEM    = UTC
MEAN_ELEMENT_THEORY = SGP/SGP4

EPOCH          = 2025-12-11T14:00:01.999872
MEAN_MOTION    = 15.50668257
ECCENTRICITY   = .0003544
INCLINATION    = 42.9998
RA_OF_ASC_NODE = 127.9587
ARG_OF_PERICENTER = 263.7088
MEAN_ANOMALY   = 214.0541

EPHEMERIS_TYPE = 0
CLASSIFICATION_TYPE = U
NORAD_CAT_ID   = 66558
ELEMENT_SET_NO = 999
REV_AT_EPOCH   = 448
BSTAR          = -.26715087E-2
MEAN_MOTION_DOT = -.154553E-2
MEAN_MOTION_DDOT = 0

CCSDS_OMM_VERS = 2.0
CREATION_DATE  = 
ORIGINATOR     = 

OBJECT_NAME    = STARLINK-35419
OBJECT_ID      = 2025-268C
CENTER_NAME    = EARTH
REF_FRAME      = TEME
TIME_SYSTEM    = UTC
MEAN_ELEMENT_THEORY = SGP/SGP4

EPOCH          = 2025-12-11T14:00:01.999872
MEAN_MOTION    = 15.50503409
ECCENTRICITY   = .00015923
INCLINATION    = 42.9998
RA_OF_ASC_NODE = 127.9548
ARG_OF_PERICENTER = 269.2908
MEAN_ANOMALY   = 210.4831

EPHEMERIS_TYPE = 0
CLASSIFICATION_TYPE = U
NORAD_CAT_ID   = 66559
ELEMENT_SET_NO = 999
REV_AT_EPOCH   = 448
BSTAR          = .10744243E-2
MEAN_MOTION_DOT = .63029E-3
MEAN_MOTION_DDOT = 0

CCSDS_OMM_VERS = 2.0
CREATION_DATE  = 
ORIGINATOR     = 

OBJECT_NAME    = STARLINK-35411
OBJECT_ID      = 2025-268D
CENTER_NAME    = EARTH
REF_FRAME      = TEME
TIME_SYSTEM    = UTC
MEAN_ELEMENT_THEORY = SGP/SGP4

EPOCH          = 2025-12-11T14:00:01.999872
MEAN_MOTION    = 15.50508267
ECCENTRICITY   = .00018373
INCLINATION    = 42.9998
RA_OF_ASC_NODE = 127.9500
ARG_OF_PERICENTER = 268.0294
MEAN_ANOMALY   = 213.6070

EPHEMERIS_TYPE = 0
CLASSIFICATION_TYPE = U
NORAD_CAT_ID   = 66560
ELEMENT_SET_NO = 999
REV_AT_EPOCH   = 448
BSTAR          = .96466707E-3
MEAN_MOTION_DOT = .56518E-3
MEAN_MOTION_DDOT = 0

CCSDS_OMM_VERS = 2.0
CREATION_DATE  = 
ORIGINATOR     = 

OBJECT_NAME    = STARLINK-35305
OBJECT_ID      = 2025-268E
CENTER_NAME    = EARTH
REF_FRAME      = TEME
TIME_SYSTEM    = UTC
MEAN_ELEMENT_THEORY = SGP/SGP4

EPOCH          = 2025-12-11T14:00:01.999872
MEAN_MOTION    = 15.50671788
ECCENTRICITY   = .00013442
INCLINATION    = 42.9997
RA_OF_ASC_NODE = 127.9403
ARG_OF_PERICENTER = 275.4450
MEAN_ANOMALY   = 210.0657

EPHEMERIS_TYPE = 0
CLASSIFICATION_TYPE = U
NORAD_CAT_ID   = 66561
ELEMENT_SET_NO = 999
REV_AT_EPOCH   = 443
BSTAR          = -.37608812E-2
MEAN_MOTION_DOT = -.215717E-2
MEAN_MOTION_DDOT = 0

CCSDS_OMM_VERS = 2.0
CREATION_DATE  = 
ORIGINATOR     = 

OBJECT_NAME    = STARLINK-35579
OBJECT_ID      = 2025-268F
CENTER_NAME    = EARTH
REF_FRAME      = TEME
TIME_SYSTEM    = UTC
MEAN_ELEMENT_THEORY = SGP/SGP4

EPOCH          = 2025-12-11T14:00:01.999872
MEAN_MOTION    = 15.50630066
ECCENTRICITY   = .00015643
INCLINATION    = 42.9998
RA_OF_ASC_NODE = 127.9447
ARG_OF_PERICENTER = 268.7043
MEAN_ANOMALY   = 214.9089

EPHEMERIS_TYPE = 0
CLASSIFICATION_TYPE = U
NORAD_CAT_ID   = 66562
ELEMENT_SET_NO = 999
REV_AT_EPOCH   = 448
BSTAR          = -.288493E-2
MEAN_MOTION_DOT = -.166346E-2
MEAN_MOTION_DDOT = 0

CCSDS_OMM_VERS = 2.0
CREATION_DATE  = 
ORIGINATOR     = 

OBJECT_NAME    = STARLINK-35437
OBJECT_ID      = 2025-268G
CENTER_NAME    = EARTH
REF_FRAME      = TEME
TIME_SYSTEM    = UTC
MEAN_ELEMENT_THEORY = SGP/SGP4

EPOCH          = 2025-12-11T14:00:01.999872
MEAN_MOTION    = 15.50625570
ECCENTRICITY   = .00015707
INCLINATION    = 42.9998
RA_OF_ASC_NODE = 127.9352
ARG_OF_PERICENTER = 266.3482
MEAN_ANOMALY   = 221.1006

EPHEMERIS_TYPE = 0
CLASSIFICATION_TYPE = U
NORAD_CAT_ID   = 66563
ELEMENT_SET_NO = 999
REV_AT_EPOCH   = 448
BSTAR          = -.27559411E-2
MEAN_MOTION_DOT = -.159045E-2
MEAN_MOTION_DDOT = 0

CCSDS_OMM_VERS = 2.0
CREATION_DATE  = 
ORIGINATOR     = 

OBJECT_NAME    = STARLINK-35358
OBJECT_ID      = 2025-268H
CENTER_NAME    = EARTH
REF_FRAME      = TEME
TIME_SYSTEM    = UTC
MEAN_ELEMENT_THEORY = SGP/SGP4

EPOCH          = 2025-12-11T14:00:01.999872
MEAN_MOTION    = 15.50629289
ECCENTRICITY   = .00015496
INCLINATION    = 42.9997
RA_OF_ASC_NODE = 127.9305
ARG_OF_PERICENTER = 266.0209
MEAN_ANOMALY   = 223.3445

EPHEMERIS_TYPE = 0
CLASSIFICATION_TYPE = U
NORAD_CAT_ID   = 66564
ELEMENT_SET_NO = 999
REV_AT_EPOCH   = 443
BSTAR          = -.28946126E-2
MEAN_MOTION_DOT = -.166887E-2
MEAN_MOTION_DDOT = 0

CCSDS_OMM_VERS = 2.0
CREATION_DATE  = 
ORIGINATOR     = 

OBJECT_NAME    = STARLINK-35893
OBJECT_ID      = 2025-268J
CENTER_NAME    = EARTH
REF_FRAME      = TEME
TIME_SYSTEM    = UTC
MEAN_ELEMENT_THEORY = SGP/SGP4

EPOCH          = 2025-12-11T14:00:01.999872
MEAN_MOTION    = 15.50625880
ECCENTRICITY   = .00015826
INCLINATION    = 42.9998
RA_OF_ASC_NODE = 127.9255
ARG_OF_PERICENTER = 265.5569
MEAN_ANOMALY   = 225.7291

EPHEMERIS_TYPE = 0
CLASSIFICATION_TYPE = U
NORAD_CAT_ID   = 66565
ELEMENT_SET_NO = 999
REV_AT_EPOCH   = 448
BSTAR          = -.28054036E-2
MEAN_MOTION_DOT = -.161839E-2
MEAN_MOTION_DDOT = 0

