USA 568                 
1 66551U 24134K   25336.66670139 -.01709685  00000+0 -74303-2 0  9990
2 66551  53.1571 236.7807 0000717 110.7411 313.9012 15.87051116  2624
GLOBAL-33               
1 66554U 25267A   25345.62028417  .00018974  00000+0  61478-3 0  9994
2 66554  42.0212  63.4559 0004371  46.3547 313.7652 15.31613043  3237
ELECTRON KICK STAGE R/B 
1 66555U 25267B   25345.60931615  .00036872  00000+0  11433-2 0  9998
2 66555  42.0196  63.3722 0006597  43.8355 316.3006 15.32723055  3239
STARLINK-35699          
1 66557U 25268A   25345.58335648 -.00015643  00000+0 -26011-3 0  9996
2 66557  42.9997 127.9638 0001584 257.8250 218.0370 15.50711148  4484
STARLINK-35695          
1 66558U 25268B   25345.58335648 -.00154553  00000+0 -26715-2 0  9991
2 66558  42.9998 127.9587 0003544 263.7088 214.0541 15.50668257  4480
STARLINK-35419          
1 66559U 25268C   25345.58335648  .00063029  00000+0  10744-2 0  9992
2 66559  42.9998 127.9548 0001592 269.2908 210.4831 15.50503409  4480
STARLINK-35411          
1 66560U 25268D   25345.58335648  .00056518  00000+0  96467-3 0  9996
2 66560  42.9998 127.9500 0001837 268.0294 213.6070 15.50508267  4484
STARLINK-35305          
1 66561U 25268E   25345.58335648 -.00215717  00000+0 -37609-2 0  9999
2 66561  42.9997 127.9403 0001344 275.4450 210.0657 15.50671788  4431
STARLINK-35579          
1 66562U 25268F   25345.58335648 -.00166346  00000+0 -28849-2 0  9999
2 66562  42.9998 127.9447 0001564 268.7043 214.9089 15.50630066  4489
STARLINK-35437          
1 66563U 25268G   25345.58335648 -.00159045  00000+0 -27559-2 0  9995
2 66563  42.9998 127.9352 0001570 266.3482 221.1006 15.50625570  4486
STARLINK-35358          
1 66564U 25268H   25345.58335648 -.00166887  00000+0 -28946-2 0  9999
2 66564  42.9997 127.9305 0001549 266.0209 223.3445 15.50629289  4431
STARLINK-35893          
1 66565U 25268J   25345.58335648 -.00161839  00000+0 -28054-2 0  9992
2 66565  42.9998 127.9255 0001582 265.5569 225.7291 15.50625880  4480
